[{"OBJECT_NAME":"ONEWEB-0166","OBJECT_ID":"2021-025Z","EPOCH":"2025-11-07T03:58:12.727776","MEAN_MOTION":13.1346937,"ECCENTRICITY":0.00016952,"INCLINATION":87.9029,"RA_OF_ASC_NODE":4.3208,"ARG_OF_PERICENTER":93.3073,"MEAN_ANOMALY":266.825,"EPHEMERIS_TYPE":0,"CLASSIFICATION_TYPE":"U","NORAD_CAT_ID":48065,"ELEMENT_SET_NO":999,"REV_AT_EPOCH":22450,"BSTAR":-0.00017960309,"MEAN_MOTION_DOT":-5.3e-7,"MEAN_MOTION_DDOT":0},{"OBJECT_NAME":"ONEWEB-0151","OBJECT_ID":"2021-025AA","EPOCH":"2025-11-07T04:00:38.300544","MEAN_MOTION":13.1346845,"ECCENTRICITY":0.00019708,"INCLINATION":87.9031,"RA_OF_ASC_NODE":4.3464,"ARG_OF_PERICENTER":98.4273,"MEAN_ANOMALY":261.708,"EPHEMERIS_TYPE":0,"CLASSIFICATION_TYPE":"U","NORAD_CAT_ID":48066,"ELEMENT_SET_NO":999,"REV_AT_EPOCH":22444,"BSTAR":-0.00029281091,"MEAN_MOTION_DOT":-9.4e-7,"MEAN_MOTION_DDOT":0},{"OBJECT_NAME":"ONEWEB-0170","OBJECT_ID":"2021-025AB","EPOCH":"2025-11-07T04:12:50.560416","MEAN_MOTION":13.13469014,"ECCENTRICITY":0.00021434,"INCLINATION":87.9023,"RA_OF_ASC_NODE":4.3511,"ARG_OF_PERICENTER":109.1659,"MEAN_ANOMALY":250.9703,"EPHEMERIS_TYPE":0,"CLASSIFICATION_TYPE":"U","NORAD_CAT_ID":48067,"ELEMENT_SET_NO":999,"REV_AT_EPOCH":22440,"BSTAR":-0.0007835959,"MEAN_MOTION_DOT":-2.73e-6,"MEAN_MOTION_DDOT":0},{"OBJECT_NAME":"ONEWEB-0168","OBJECT_ID":"2021-025AC","EPOCH":"2025-11-07T03:50:54.238272","MEAN_MOTION":13.13469361,"ECCENTRICITY":0.00018813,"INCLINATION":87.9033,"RA_OF_ASC_NODE":4.3368,"ARG_OF_PERICENTER":92.9091,"MEAN_ANOMALY":267.2253,"EPHEMERIS_TYPE":0,"CLASSIFICATION_TYPE":"U","NORAD_CAT_ID":48068,"ELEMENT_SET_NO":999,"REV_AT_EPOCH":22441,"BSTAR":0.00033659329,"MEAN_MOTION_DOT":1.36e-6,"MEAN_MOTION_DDOT":0},{"OBJECT_NAME":"ONEWEB-0173","OBJECT_ID":"2021-025AD","EPOCH":"2025-11-07T03:38:42.556416","MEAN_MOTION":13.13468392,"ECCENTRICITY":0.00021528,"INCLINATION":87.9031,"RA_OF_ASC_NODE":4.3463,"ARG_OF_PERICENTER":90.1525,"MEAN_ANOMALY":269.9851,"EPHEMERIS_TYPE":0,"CLASSIFICATION_TYPE":"U","NORAD_CAT_ID":48069,"ELEMENT_SET_NO":999,"REV_AT_EPOCH":22465,"BSTAR":0.00084543154,"MEAN_MOTION_DOT":3.21e-6,"MEAN_MOTION_DDOT":0},{"OBJECT_NAME":"ONEWEB-0171","OBJECT_ID":"2021-025AE","EPOCH":"2025-11-07T04:32:19.936032","MEAN_MOTION":13.13471874,"ECCENTRICITY":0.00019896,"INCLINATION":87.9015,"RA_OF_ASC_NODE":4.3679,"ARG_OF_PERICENTER":99.5882,"MEAN_ANOMALY":260.5472,"EPHEMERIS_TYPE":0,"CLASSIFICATION_TYPE":"U","NORAD_CAT_ID":48070,"ELEMENT_SET_NO":999,"REV_AT_EPOCH":22447,"BSTAR":-0.00067406662,"MEAN_MOTION_DOT":-2.33e-6,"MEAN_MOTION_DDOT":0},{"OBJECT_NAME":"ONEWEB-0172","OBJECT_ID":"2021-025AF","EPOCH":"2025-11-07T04:03:05.382720","MEAN_MOTION":13.13469256,"ECCENTRICITY":0.00019886,"INCLINATION":87.903,"RA_OF_ASC_NODE":4.3472,"ARG_OF_PERICENTER":96.6256,"MEAN_ANOMALY":263.51,"EPHEMERIS_TYPE":0,"CLASSIFICATION_TYPE":"U","NORAD_CAT_ID":48071,"ELEMENT_SET_NO":999,"REV_AT_EPOCH":22536,"BSTAR":-0.00035397851,"MEAN_MOTION_DOT":-1.17e-6,"MEAN_MOTION_DDOT":0},{"OBJECT_NAME":"ONEWEB-0174","OBJECT_ID":"2021-025AG","EPOCH":"2025-11-07T03:36:16.861824","MEAN_MOTION":13.13469416,"ECCENTRICITY":0.00017612,"INCLINATION":87.9019,"RA_OF_ASC_NODE":4.3587,"ARG_OF_PERICENTER":94.4191,"MEAN_ANOMALY":265.7139,"EPHEMERIS_TYPE":0,"CLASSIFICATION_TYPE":"U","NORAD_CAT_ID":48072,"ELEMENT_SET_NO":999,"REV_AT_EPOCH":22468,"BSTAR":0.00090311825,"MEAN_MOTION_DOT":3.43e-6,"MEAN_MOTION_DDOT":0},{"OBJECT_NAME":"ONEWEB-0175","OBJECT_ID":"2021-025AH","EPOCH":"2025-11-07T04:20:08.075328","MEAN_MOTION":13.13493452,"ECCENTRICITY":0.00021503,"INCLINATION":87.9023,"RA_OF_ASC_NODE":4.3195,"ARG_OF_PERICENTER":96.313,"MEAN_ANOMALY":263.8244,"EPHEMERIS_TYPE":0,"CLASSIFICATION_TYPE":"U","NORAD_CAT_ID":48073,"ELEMENT_SET_NO":999,"REV_AT_EPOCH":22434,"BSTAR":-0.014610067,"MEAN_MOTION_DOT":-5.321e-5,"MEAN_MOTION_DDOT":0},{"OBJECT_NAME":"ONEWEB-0177","OBJECT_ID":"2021-025AJ","EPOCH":"2025-11-07T04:37:11.556768","MEAN_MOTION":13.13468522,"ECCENTRICITY":0.00018181,"INCLINATION":87.9027,"RA_OF_ASC_NODE":4.3361,"ARG_OF_PERICENTER":91.6538,"MEAN_ANOMALY":268.48,"EPHEMERIS_TYPE":0,"CLASSIFICATION_TYPE":"U","NORAD_CAT_ID":48074,"ELEMENT_SET_NO":999,"REV_AT_EPOCH":22453,"BSTAR":-0.00051465848,"MEAN_MOTION_DOT":-1.75e-6,"MEAN_MOTION_DDOT":0},{"OBJECT_NAME":"ONEWEB-0178","OBJECT_ID":"2021-025AK","EPOCH":"2025-11-07T03:14:32.541504","MEAN_MOTION":13.13470757,"ECCENTRICITY":0.00021071,"INCLINATION":87.9026,"RA_OF_ASC_NODE":4.3925,"ARG_OF_PERICENTER":94.6683,"MEAN_ANOMALY":265.4687,"EPHEMERIS_TYPE":0,"CLASSIFICATION_TYPE":"U","NORAD_CAT_ID":48075,"ELEMENT_SET_NO":999,"REV_AT_EPOCH":22457,"BSTAR":0.00080363702,"MEAN_MOTION_DOT":3.06e-6,"MEAN_MOTION_DDOT":0},{"OBJECT_NAME":"ONEWEB-0108","OBJECT_ID":"2021-025AL","EPOCH":"2025-11-07T04:05:30.534720","MEAN_MOTION":13.13468573,"ECCENTRICITY":0.00016327,"INCLINATION":87.9025,"RA_OF_ASC_NODE":4.3307,"ARG_OF_PERICENTER":101.7207,"MEAN_ANOMALY":258.4106,"EPHEMERIS_TYPE":0,"CLASSIFICATION_TYPE":"U","NORAD_CAT_ID":48076,"ELEMENT_SET_NO":999,"REV_AT_EPOCH":22450,"BSTAR":-0.00036349797,"MEAN_MOTION_DOT":-1.2e-6,"MEAN_MOTION_DDOT":0},{"OBJECT_NAME":"ONEWEB-0169","OBJECT_ID":"2021-025AM","EPOCH":"2025-11-07T03:02:08.904480","MEAN_MOTION":13.13470585,"ECCENTRICITY":0.00015754,"INCLINATION":87.9022,"RA_OF_ASC_NODE":4.3616,"ARG_OF_PERICENTER":99.096,"MEAN_ANOMALY":261.0347,"EPHEMERIS_TYPE":0,"CLASSIFICATION_TYPE":"U","NORAD_CAT_ID":48077,"ELEMENT_SET_NO":999,"REV_AT_EPOCH":22315,"BSTAR":0.0004406185,"MEAN_MOTION_DOT":1.74e-6,"MEAN_MOTION_DDOT":0},{"OBJECT_NAME":"ONEWEB-0176","OBJECT_ID":"2021-031A","EPOCH":"2025-11-07T03:26:31.557120","MEAN_MOTION":13.14501594,"ECCENTRICITY":0.00020328,"INCLINATION":87.9006,"RA_OF_ASC_NODE":333.9378,"ARG_OF_PERICENTER":93.8626,"MEAN_ANOMALY":266.2736,"EPHEMERIS_TYPE":0,"CLASSIFICATION_TYPE":"U","NORAD_CAT_ID":48210,"ELEMENT_SET_NO":999,"REV_AT_EPOCH":21914,"BSTAR":0.00031558581,"MEAN_MOTION_DOT":1.3e-6,"MEAN_MOTION_DDOT":0},{"OBJECT_NAME":"ONEWEB-0184","OBJECT_ID":"2021-031B","EPOCH":"2025-11-07T00:58:05.519424","MEAN_MOTION":13.14502843,"ECCENTRICITY":0.00026947,"INCLINATION":87.901,"RA_OF_ASC_NODE":333.935,"ARG_OF_PERICENTER":98.7048,"MEAN_ANOMALY":261.4387,"EPHEMERIS_TYPE":0,"CLASSIFICATION_TYPE":"U","NORAD_CAT_ID":48211,"ELEMENT_SET_NO":999,"REV_AT_EPOCH":21910,"BSTAR":0.00023254416,"MEAN_MOTION_DOT":9.9e-7,"MEAN_MOTION_DDOT":0},{"OBJECT_NAME":"ONEWEB-0179","OBJECT_ID":"2021-031C","EPOCH":"2025-11-07T02:05:26.514816","MEAN_MOTION":13.14503699,"ECCENTRICITY":0.00018282,"INCLINATION":87.9003,"RA_OF_ASC_NODE":333.9363,"ARG_OF_PERICENTER":90.8897,"MEAN_ANOMALY":269.2442,"EPHEMERIS_TYPE":0,"CLASSIFICATION_TYPE":"U","NORAD_CAT_ID":48212,"ELEMENT_SET_NO":999,"REV_AT_EPOCH":21915,"BSTAR":-0.00037063913,"MEAN_MOTION_DOT":-1.25e-6,"MEAN_MOTION_DDOT":0},{"OBJECT_NAME":"ONEWEB-0180","OBJECT_ID":"2021-031D","EPOCH":"2025-11-07T01:02:38.224608","MEAN_MOTION":13.14504273,"ECCENTRICITY":0.0001868,"INCLINATION":87.9006,"RA_OF_ASC_NODE":333.9394,"ARG_OF_PERICENTER":81.2711,"MEAN_ANOMALY":278.863,"EPHEMERIS_TYPE":0,"CLASSIFICATION_TYPE":"U","NORAD_CAT_ID":48213,"ELEMENT_SET_NO":999,"REV_AT_EPOCH":21903,"BSTAR":0.0006763208,"MEAN_MOTION_DOT":2.64e-6,"MEAN_MOTION_DDOT":0}]
