ONEWEB-0166             
1 48065U 21025Z   25311.16542509 -.00000053  00000+0 -17960-3 0  9992
2 48065  87.9029   4.3208 0001695  93.3073 266.8250 13.13469370224502
ONEWEB-0151             
1 48066U 21025AA  25311.16710996 -.00000094  00000+0 -29281-3 0  9994
2 48066  87.9031   4.3464 0001970  98.4273 261.7080 13.13468450224440
ONEWEB-0170             
1 48067U 21025AB  25311.17558519 -.00000273  00000+0 -78360-3 0  9998
2 48067  87.9023   4.3511 0002143 109.1659 250.9703 13.13469014224401
ONEWEB-0168             
1 48068U 21025AC  25311.16034998  .00000136  00000+0  33659-3 0  9996
2 48068  87.9033   4.3368 0001881  92.9091 267.2253 13.13469361224417
ONEWEB-0173             
1 48069U 21025AD  25311.15188144  .00000321  00000+0  84543-3 0  9993
2 48069  87.9031   4.3463 0002152  90.1525 269.9851 13.13468392224658
ONEWEB-0171             
1 48070U 21025AE  25311.18911963 -.00000233  00000+0 -67407-3 0  9995
2 48070  87.9015   4.3679 0001989  99.5882 260.5472 13.13471874224472
ONEWEB-0172             
1 48071U 21025AF  25311.16881230 -.00000117  00000+0 -35398-3 0  9992
2 48071  87.9030   4.3472 0001988  96.6256 263.5100 13.13469256225364
ONEWEB-0174             
1 48072U 21025AG  25311.15019516  .00000343  00000+0  90312-3 0  9998
2 48072  87.9019   4.3587 0001761  94.4191 265.7139 13.13469416224680
ONEWEB-0175             
1 48073U 21025AH  25311.18064902 -.00005321  00000+0 -14610-1 0  9999
2 48073  87.9023   4.3195 0002150  96.3130 263.8244 13.13493452224344
ONEWEB-0177             
1 48074U 21025AJ  25311.19249487 -.00000175  00000+0 -51466-3 0  9998
2 48074  87.9027   4.3361 0001818  91.6538 268.4800 13.13468522224534
ONEWEB-0178             
1 48075U 21025AK  25311.13509886  .00000306  00000+0  80364-3 0  9998
2 48075  87.9026   4.3925 0002107  94.6683 265.4687 13.13470757224573
ONEWEB-0108             
1 48076U 21025AL  25311.17049230 -.00000120  00000+0 -36350-3 0  9997
2 48076  87.9025   4.3307 0001632 101.7207 258.4106 13.13468573224505
ONEWEB-0169             
1 48077U 21025AM  25311.12649195  .00000174  00000+0  44062-3 0  9995
2 48077  87.9022   4.3616 0001575  99.0960 261.0347 13.13470585223150
ONEWEB-0176             
1 48210U 21031A   25311.14342080  .00000130  00000+0  31559-3 0  9995
2 48210  87.9006 333.9378 0002032  93.8626 266.2736 13.14501594219146
ONEWEB-0184             
1 48211U 21031B   25311.04034166  .00000099  00000+0  23254-3 0  9995
2 48211  87.9010 333.9350 0002694  98.7048 261.4387 13.14502843219101
ONEWEB-0179             
1 48212U 21031C   25311.08711244 -.00000125  00000+0 -37064-3 0  9995
2 48212  87.9003 333.9363 0001828  90.8897 269.2442 13.14503699219154
ONEWEB-0180             
1 48213U 21031D   25311.04349797  .00000264  00000+0  67632-3 0  9998
2 48213  87.9006 333.9394 0001868  81.2711 278.8630 13.14504273219036
